[{"OBJECT_NAME":"EZIE-B","OBJECT_ID":"2025-052AS","EPOCH":"2026-03-09T23:09:37.705536","MEAN_MOTION":14.96286279,"ECCENTRICITY":0.00040038,"INCLINATION":97.7009,"RA_OF_ASC_NODE":322.7783,"ARG_OF_PERICENTER":146.8572,"MEAN_ANOMALY":213.2901,"EPHEMERIS_TYPE":0,"CLASSIFICATION_TYPE":"U","NORAD_CAT_ID":63250,"ELEMENT_SET_NO":999,"REV_AT_EPOCH":5382,"BSTAR":0.00063815223,"MEAN_MOTION_DOT":7.158e-5,"MEAN_MOTION_DDOT":0},{"OBJECT_NAME":"STARLINK-36106","OBJECT_ID":"2025-293R","EPOCH":"2026-03-09T12:10:20.378784","MEAN_MOTION":14.98345506,"ECCENTRICITY":0.00032636,"INCLINATION":70.0003,"RA_OF_ASC_NODE":94.7881,"ARG_OF_PERICENTER":267.91,"MEAN_ANOMALY":92.1685,"EPHEMERIS_TYPE":0,"CLASSIFICATION_TYPE":"U","NORAD_CAT_ID":67018,"ELEMENT_SET_NO":999,"REV_AT_EPOCH":1486,"BSTAR":0.00032957654,"MEAN_MOTION_DOT":3.843e-5,"MEAN_MOTION_DDOT":0}]
